{
  "type": "FeatureCollection",
  "features": [
    {
      "type": "Feature",
      "properties": {
        "norad_id": 57400,
        "name": "TIANMU-1 08",
        "group": "weather",
        "lat": -30.28194532938877,
        "lon": -140.02919221569098,
        "alt_km": 491.6359460375279,
        "timestamp": "2025-12-20T18:51:31.361183+00:00",
        "meta_object_name": "TIANMU-1 08",
        "meta_object_id": "2023-101B",
        "meta_epoch": "2025-12-20T14:47:52.920672",
        "meta_mean_motion": 15.28157487,
        "meta_eccentricity": 0.00072269,
        "meta_inclination": 97.2854,
        "meta_ra_of_asc_node": 44.0896,
        "meta_arg_of_pericenter": 61.855,
        "meta_mean_anomaly": 298.3419,
        "meta_ephemeris_type": 0,
        "meta_classification_type": "U",
        "meta_norad_cat_id": 57400,
        "meta_element_set_no": 999,
        "meta_rev_at_epoch": 13435,
        "meta_bstar": 0.00018124385,
        "meta_mean_motion_dot": 4.904e-05,
        "meta_mean_motion_ddot": 0,
        "tle_line1": "1 57400U 23101B   25354.61658473  .00004904  00000+0  18124-3 0  9997",
        "tle_line2": "2 57400  97.2854  44.0896 0007226  61.8550 298.3419 15.28157487134356"
      },
      "geometry": {
        "type": "Point",
        "coordinates": [
          -140.02919221569098,
          -30.28194532938877
        ]
      }
    },
    {
      "type": "Feature",
      "properties": {
        "norad_id": 57401,
        "name": "TIANMU-1 09",
        "group": "weather",
        "lat": -74.36527429753707,
        "lon": 70.94920904723499,
        "alt_km": 491.85459237197574,
        "timestamp": "2025-12-20T18:51:31.361194+00:00",
        "meta_object_name": "TIANMU-1 09",
        "meta_object_id": "2023-101C",
        "meta_epoch": "2025-12-20T14:28:37.229952",
        "meta_mean_motion": 15.28190318,
        "meta_eccentricity": 0.00064887,
        "meta_inclination": 97.2811,
        "meta_ra_of_asc_node": 43.5858,
        "meta_arg_of_pericenter": 62.3709,
        "meta_mean_anomaly": 297.8189,
        "meta_ephemeris_type": 0,
        "meta_classification_type": "U",
        "meta_norad_cat_id": 57401,
        "meta_element_set_no": 999,
        "meta_rev_at_epoch": 13435,
        "meta_bstar": 0.00018045899,
        "meta_mean_motion_dot": 4.887e-05,
        "meta_mean_motion_ddot": 0,
        "tle_line1": "1 57401U 23101C   25354.60320868  .00004887  00000+0  18046-3 0  9994",
        "tle_line2": "2 57401  97.2811  43.5858 0006488  62.3709 297.8189 15.28190318134351"
      },
      "geometry": {
        "type": "Point",
        "coordinates": [
          70.94920904723499,
          -74.36527429753707
        ]
      }
    },
    {
      "type": "Feature",
      "properties": {
        "norad_id": 57402,
        "name": "TIANMU-1 10",
        "group": "weather",
        "lat": 80.7527605222383,
        "lon": -83.54597102952617,
        "alt_km": 469.2466833168337,
        "timestamp": "2025-12-20T18:51:31.361206+00:00",
        "meta_object_name": "TIANMU-1 10",
        "meta_object_id": "2023-101D",
        "meta_epoch": "2025-12-20T15:17:56.865408",
        "meta_mean_motion": 15.28182041,
        "meta_eccentricity": 0.00082282,
        "meta_inclination": 97.2892,
        "meta_ra_of_asc_node": 44.4775,
        "meta_arg_of_pericenter": 60.648,
        "meta_mean_anomaly": 299.5581,
        "meta_ephemeris_type": 0,
        "meta_classification_type": "U",
        "meta_norad_cat_id": 57402,
        "meta_element_set_no": 999,
        "meta_rev_at_epoch": 13435,
        "meta_bstar": 0.00018293051,
        "meta_mean_motion_dot": 4.955e-05,
        "meta_mean_motion_ddot": 0,
        "tle_line1": "1 57402U 23101D   25354.63746372  .00004955  00000+0  18293-3 0  9990",
        "tle_line2": "2 57402  97.2892  44.4775 0008228  60.6480 299.5581 15.28182041134359"
      },
      "geometry": {
        "type": "Point",
        "coordinates": [
          -83.54597102952617,
          80.7527605222383
        ]
      }
    },
    {
      "type": "Feature",
      "properties": {
        "norad_id": 57490,
        "name": "FENGYUN 3F",
        "group": "weather",
        "lat": 72.33483129633983,
        "lon": -88.28658666089538,
        "alt_km": 818.1802919928805,
        "timestamp": "2025-12-20T18:51:31.361216+00:00",
        "meta_object_name": "FENGYUN 3F",
        "meta_object_id": "2023-111A",
        "meta_epoch": "2025-12-20T14:58:54.171840",
        "meta_mean_motion": 14.19895462,
        "meta_eccentricity": 7.586e-05,
        "meta_inclination": 98.7074,
        "meta_ra_of_asc_node": 62.7901,
        "meta_arg_of_pericenter": 113.8859,
        "meta_mean_anomaly": 246.2397,
        "meta_ephemeris_type": 0,
        "meta_classification_type": "U",
        "meta_norad_cat_id": 57490,
        "meta_element_set_no": 999,
        "meta_rev_at_epoch": 12352,
        "meta_bstar": 4.2756311e-05,
        "meta_mean_motion_dot": 4.7e-07,
        "meta_mean_motion_ddot": 0,
        "tle_line1": "1 57490U 23111A   25354.62423810  .00000047  00000+0  42756-4 0  9996",
        "tle_line2": "2 57490  98.7074  62.7901 0000758 113.8859 246.2397 14.19895462123527"
      },
      "geometry": {
        "type": "Point",
        "coordinates": [
          -88.28658666089538,
          72.33483129633983
        ]
      }
    },
    {
      "type": "Feature",
      "properties": {
        "norad_id": 58584,
        "name": "ARKTIKA-M 2",
        "group": "weather",
        "lat": -45.622712153563846,
        "lon": 142.91958304542985,
        "alt_km": 2775.630260437999,
        "timestamp": "2025-12-20T18:51:31.361230+00:00",
        "meta_object_name": "ARKTIKA-M 2",
        "meta_object_id": "2023-198A",
        "meta_epoch": "2025-12-20T07:20:06.590112",
        "meta_mean_motion": 2.00602824,
        "meta_eccentricity": 0.68654675,
        "meta_inclination": 63.225,
        "meta_ra_of_asc_node": 174.0676,
        "meta_arg_of_pericenter": 268.0739,
        "meta_mean_anomaly": 18.8406,
        "meta_ephemeris_type": 0,
        "meta_classification_type": "U",
        "meta_norad_cat_id": 58584,
        "meta_element_set_no": 999,
        "meta_rev_at_epoch": 1473,
        "meta_bstar": 0,
        "meta_mean_motion_dot": 2.01e-06,
        "meta_mean_motion_ddot": 0,
        "tle_line1": "1 58584U 23198A   25354.30563183  .00000201  00000+0  00000+0 0  9992",
        "tle_line2": "2 58584  63.2250 174.0676 6865467 268.0739  18.8406  2.00602824 14734"
      },
      "geometry": {
        "type": "Point",
        "coordinates": [
          142.91958304542985,
          -45.622712153563846
        ]
      }
    },
    {
      "type": "Feature",
      "properties": {
        "norad_id": 58645,
        "name": "TIANMU-1 11",
        "group": "weather",
        "lat": 5.94591909879018,
        "lon": -164.96098549631685,
        "alt_km": 495.12885729416485,
        "timestamp": "2025-12-20T18:51:31.361242+00:00",
        "meta_object_name": "TIANMU-1 11",
        "meta_object_id": "2023-205A",
        "meta_epoch": "2025-12-20T14:56:51.048384",
        "meta_mean_motion": 15.24687402,
        "meta_eccentricity": 0.00075361,
        "meta_inclination": 97.3595,
        "meta_ra_of_asc_node": 14.1076,
        "meta_arg_of_pericenter": 276.9903,
        "meta_mean_anomaly": 83.0477,
        "meta_ephemeris_type": 0,
        "meta_classification_type": "U",
        "meta_norad_cat_id": 58645,
        "meta_element_set_no": 999,
        "meta_rev_at_epoch": 11029,
        "meta_bstar": 0.00016957907,
        "meta_mean_motion_dot": 4.123e-05,
        "meta_mean_motion_ddot": 0,
        "tle_line1": "1 58645U 23205A   25354.62281306  .00004123  00000+0  16958-3 0  9998",
        "tle_line2": "2 58645  97.3595  14.1076 0007536 276.9903  83.0477 15.24687402110295"
      },
      "geometry": {
        "type": "Point",
        "coordinates": [
          -164.96098549631685,
          5.94591909879018
        ]
      }
    },
    {
      "type": "Feature",
      "properties": {
        "norad_id": 58646,
        "name": "TIANMU-1 12",
        "group": "weather",
        "lat": 22.56805203541781,
        "lon": 10.99189819102365,
        "alt_km": 494.27605270398817,
        "timestamp": "2025-12-20T18:51:31.361252+00:00",
        "meta_object_name": "TIANMU-1 12",
        "meta_object_id": "2023-205B",
        "meta_epoch": "2025-12-20T14:02:00.375648",
        "meta_mean_motion": 15.24572258,
        "meta_eccentricity": 0.0005819,
        "meta_inclination": 97.3582,
        "meta_ra_of_asc_node": 13.8731,
        "meta_arg_of_pericenter": 255.6721,
        "meta_mean_anomaly": 104.3871,
        "meta_ephemeris_type": 0,
        "meta_classification_type": "U",
        "meta_norad_cat_id": 58646,
        "meta_element_set_no": 999,
        "meta_rev_at_epoch": 11027,
        "meta_bstar": 0.0001756407,
        "meta_mean_motion_dot": 4.257e-05,
        "meta_mean_motion_ddot": 0,
        "tle_line1": "1 58646U 23205B   25354.58472657  .00004257  00000+0  17564-3 0  9997",
        "tle_line2": "2 58646  97.3582  13.8731 0005819 255.6721 104.3871 15.24572258110275"
      },
      "geometry": {
        "type": "Point",
        "coordinates": [
          10.99189819102365,
          22.56805203541781
        ]
      }
    }
  ]
}